{"type": "FeatureCollection", "features": [{"type": "Feature", "properties": {}, "geometry": {"type": "Polygon", "coordinates": [[[143.84683079111198, -37.60949743581094], [143.8469017735482, -37.609491975623534], [143.8470055171089, -37.60950835618575], [143.84712018104437, -37.60953565712276], [143.84726214591686, -37.60957933862199], [143.8474860136004, -37.60964486087084], [143.84757883678625, -37.60969400255747], [143.8476279784729, -37.60978682574333], [143.8476279784729, -37.6099014896788], [143.84759521734847, -37.60999977305206], [143.8475242349122, -37.610108976800134], [143.84739319041455, -37.61019087961119], [143.84720754404282, -37.61033284448368], [143.8470546587955, -37.61047480935617], [143.8469836763593, -37.61058401310424], [143.84692361429785, -37.61075327891375], [143.84684171148677, -37.61094984566027], [143.84683079111198, -37.61108635034536], [143.84683079111198, -37.61123377540526], [143.84684171148677, -37.61132113840372], [143.8468471716742, -37.61142488196438], [143.8468744726112, -37.611506784775436], [143.8468744726112, -37.61156138664947], [143.8468799327986, -37.61163236908571], [143.8468526318616, -37.611665130210135], [143.84681441054977, -37.61168151077234], [143.84672704755133, -37.611692431147155], [143.84660692342842, -37.61170881170936], [143.84650317986777, -37.611757953395994], [143.84639397611969, -37.61185077658185], [143.84633937424567, -37.61194359976771], [143.84626293162202, -37.61210740538982], [143.8461209667495, -37.61226029063712], [143.84602814356367, -37.61229851194894], [143.84585887775415, -37.61234219344817], [143.84574421381868, -37.61232035269856], [143.84566231100763, -37.61229305176154], [143.84554764707215, -37.612238449887506], [143.8454657442611, -37.61215108688905], [143.84540568219967, -37.6120801044528], [143.84538384145006, -37.61196544051733], [143.84539476182485, -37.61188899789368], [143.84542752294928, -37.61181255527003], [143.84545482388629, -37.61175249320859], [143.84553126650994, -37.61168151077234], [143.84557494800916, -37.611621448710906], [143.84566777119502, -37.611495864400624], [143.84570053231946, -37.61146856346361], [143.84586979812897, -37.61122285503045], [143.8459462407526, -37.61111365128238], [143.84602268337625, -37.6109935271595], [143.8460936658125, -37.61081880116259], [143.84614826768654, -37.61057309272943], [143.84620286956059, -37.61026732223483], [143.8462520112472, -37.610081675863114], [143.84630661312124, -37.609945171178026], [143.84636121499528, -37.60986872855438], [143.8464321974315, -37.60977044518111], [143.8465687021166, -37.60965032105824], [143.84665606511507, -37.60957933862199], [143.84678164942534, -37.60951381637315], [143.84683079111198, -37.60949743581094]]]}}]}